[Satellite]
VERSION=1.1
NAME=GLOBALSTAR M066
NICKNAME=GLOBALSTAR M066
TLE1=1 32265U 07048C   15054.87925624 -.00000085  00000-0  10349-3 0  9999
TLE2=2 32265  51.9672 304.9074 0001146  51.4095  27.3561 12.62265549341232
